{"type": "FeatureCollection", "features": [ {"type": "Feature", "properties": {"norad_id": 33492, "name": "GOSAT (IBUKI)", "group": "resource", "lat": 73.49761816114979, "lon": -65.42039721191331, "alt_km": 661.2076781325422, "timestamp": "2025-12-03T04:52:29.298083+00:00", "meta": {"OBJECT_NAME": "GOSAT (IBUKI)", "OBJECT_ID": "2009-002A", "EPOCH": "2025-12-02T20:13:08.536224", "MEAN_MOTION": 14.67549187, "ECCENTRICITY": 9.89e-05, "INCLINATION": 98.0767, "RA_OF_ASC_NODE": 85.5835, "ARG_OF_PERICENTER": 84.3264, "MEAN_ANOMALY": 275.8053, "EPHEMERIS_TYPE": 0, "CLASSIFICATION_TYPE": "U", "NORAD_CAT_ID": 33492, "ELEMENT_SET_NO": 999, "REV_AT_EPOCH": 90266, "BSTAR": 0.00023122, "MEAN_MOTION_DOT": 1.264e-05, "MEAN_MOTION_DDOT": 0}, "tle": {"line1": "1 33492U 09002A   25336.84245991  .00001264  00000+0  23122-3 0  9998", "line2": "2 33492  98.0767  85.5835 0000989  84.3264 275.8053 14.67549187902662"}}, "geometry": {"type": "Point", "coordinates": [-65.42039721191331, 73.49761816114979]}}, {"type": "Feature", "properties": {"norad_id": 35681, "name": "DEIMOS-1", "group": "resource", "lat": -69.66897025591477, "lon": 159.7103372677279, "alt_km": 654.4970426993532, "timestamp": "2025-12-03T04:52:29.298094+00:00", "meta": {"OBJECT_NAME": "DEIMOS-1", "OBJECT_ID": "2009-041A", "EPOCH": "2025-12-02T19:25:40.246176", "MEAN_MOTION": 14.7492748, "ECCENTRICITY": 0.000267, "INCLINATION": 97.7146, "RA_OF_ASC_NODE": 137.8756, "ARG_OF_PERICENTER": 97.7893, "MEAN_ANOMALY": 262.3619, "EPHEMERIS_TYPE": 0, "CLASSIFICATION_TYPE": "U", "NORAD_CAT_ID": 35681, "ELEMENT_SET_NO": 999, "REV_AT_EPOCH": 87793, "BSTAR": 0.0001543, "MEAN_MOTION_DOT": 9.89e-06, "MEAN_MOTION_DDOT": 0}, "tle": {"line1": "1 35681U 09041A   25336.80949359  .00000989  00000+0  15430-3 0  9994", "line2": "2 35681  97.7146 137.8756 0002670  97.7893 262.3619 14.74927480877933"}}, "geometry": {"type": "Point", "coordinates": [159.7103372677279, -69.66897025591477]}}, {"type": "Feature", "properties": {"norad_id": 35682, "name": "DUBAISAT-1", "group": "resource", "lat": -55.023320778748555, "lon": -83.54093381260355, "alt_km": 656.1879808972544, "timestamp": "2025-12-03T04:52:29.298105+00:00", "meta": {"OBJECT_NAME": "DUBAISAT-1", "OBJECT_ID": "2009-041B", "EPOCH": "2025-12-02T19:39:54.891648", "MEAN_MOTION": 14.74556819, "ECCENTRICITY": 0.0010195, "INCLINATION": 97.9786, "RA_OF_ASC_NODE": 107.646, "ARG_OF_PERICENTER": 348.2473, "MEAN_ANOMALY": 11.8496, "EPHEMERIS_TYPE": 0, "CLASSIFICATION_TYPE": "U", "NORAD_CAT_ID": 35682, "ELEMENT_SET_NO": 999, "REV_AT_EPOCH": 87615, "BSTAR": 0.0002512, "MEAN_MOTION_DOT": 1.623e-05, "MEAN_MOTION_DDOT": 0}, "tle": {"line1": "1 35682U 09041B   25336.81938532  .00001623  00000+0  25120-3 0  9990", "line2": "2 35682  97.9786 107.6460 0010195 348.2473  11.8496 14.74556819876159"}}, "geometry": {"type": "Point", "coordinates": [-83.54093381260355, -55.023320778748555]}}, {"type": "Feature", "properties": {"norad_id": 35931, "name": "OCEANSAT-2", "group": "resource", "lat": 74.42755936573147, "lon": -169.9724224671241, "alt_km": 877.8880006986501, "timestamp": "2025-12-03T04:52:29.298115+00:00", "meta": {"OBJECT_NAME": "OCEANSAT-2", "OBJECT_ID": "2009-051A", "EPOCH": "2025-12-02T21:31:18.695424", "MEAN_MOTION": 13.99626721, "ECCENTRICITY": 0.0016624, "INCLINATION": 98.2231, "RA_OF_ASC_NODE": 338.4953, "ARG_OF_PERICENTER": 70.6026, "MEAN_ANOMALY": 289.6936, "EPHEMERIS_TYPE": 0, "CLASSIFICATION_TYPE": "U", "NORAD_CAT_ID": 35931, "ELEMENT_SET_NO": 999, "REV_AT_EPOCH": 85187, "BSTAR": -7.9918e-05, "MEAN_MOTION_DOT": -1.54e-06, "MEAN_MOTION_DDOT": 0}, "tle": {"line1": "1 35931U 09051A   25336.89674416 -.00000154  00000+0 -79918-4 0  9999", "line2": "2 35931  98.2231 338.4953 0016624  70.6026 289.6936 13.99626721851871"}}, "geometry": {"type": "Point", "coordinates": [-169.9724224671241, 74.42755936573147]}}, {"type": "Feature", "properties": {"norad_id": 35946, "name": "WORLDVIEW-2 (WV-2)", "group": "resource", "lat": 0.11148481416394228, "lon": 48.404011183409914, "alt_km": 769.1657991768889, "timestamp": "2025-12-03T04:52:29.298126+00:00", "meta": {"OBJECT_NAME": "WORLDVIEW-2 (WV-2)", "OBJECT_ID": "2009-055A", "EPOCH": "2025-12-02T18:51:07.643232", "MEAN_MOTION": 14.37645081, "ECCENTRICITY": 0.0005444, "INCLINATION": 98.4772, "RA_OF_ASC_NODE": 48.0089, "ARG_OF_PERICENTER": 90.7054, "MEAN_ANOMALY": 269.4757, "EPHEMERIS_TYPE": 0, "CLASSIFICATION_TYPE": "U", "NORAD_CAT_ID": 35946, "ELEMENT_SET_NO": 999, "REV_AT_EPOCH": 84742, "BSTAR": 9.8762e-05, "MEAN_MOTION_DOT": 2.53e-06, "MEAN_MOTION_DDOT": 0}, "tle": {"line1": "1 35946U 09055A   25336.78550513  .00000253  00000+0  98762-4 0  9994", "line2": "2 35946  98.4772  48.0089 0005444  90.7054 269.4757 14.37645081847421"}}, "geometry": {"type": "Point", "coordinates": [48.404011183409914, 0.11148481416394228]}}, {"type": "Feature", "properties": {"norad_id": 36036, "name": "SMOS", "group": "resource", "lat": -35.5410119132954, "lon": 168.47963667801957, "alt_km": 765.6715007400762, "timestamp": "2025-12-03T04:52:29.298136+00:00", "meta": {"OBJECT_NAME": "SMOS", "OBJECT_ID": "2009-059A", "EPOCH": "2025-12-02T19:02:03.717312", "MEAN_MOTION": 14.39787654, "ECCENTRICITY": 0.0001043, "INCLINATION": 98.4384, "RA_OF_ASC_NODE": 161.9883, "ARG_OF_PERICENTER": 72.0153, "MEAN_ANOMALY": 288.1149, "EPHEMERIS_TYPE": 0, "CLASSIFICATION_TYPE": "U", "NORAD_CAT_ID": 36036, "ELEMENT_SET_NO": 999, "REV_AT_EPOCH": 84519, "BSTAR": 0.0001873, "MEAN_MOTION_DOT": 5.44e-06, "MEAN_MOTION_DDOT": 0}, "tle": {"line1": "1 36036U 09059A   25336.79309858  .00000544  00000+0  18730-3 0  9993", "line2": "2 36036  98.4384 161.9883 0001043  72.0153 288.1149 14.39787654845192"}}, "geometry": {"type": "Point", "coordinates": [168.47963667801957, -35.5410119132954]}}, {"type": "Feature", "properties": {"norad_id": 36110, "name": "YAOGAN-7", "group": "resource", "lat": -70.989463803247, "lon": -116.81636605124987, "alt_km": 628.8439143183368, "timestamp": "2025-12-03T04:52:29.298146+00:00", "meta": {"OBJECT_NAME": "YAOGAN-7", "OBJECT_ID": "2009-069A", "EPOCH": "2025-12-02T16:12:03.735936", "MEAN_MOTION": 14.77707249, "ECCENTRICITY": 0.0023838, "INCLINATION": 98.0304, "RA_OF_ASC_NODE": 218.4677, "ARG_OF_PERICENTER": 315.2406, "MEAN_ANOMALY": 44.688, "EPHEMERIS_TYPE": 0, "CLASSIFICATION_TYPE": "U", "NORAD_CAT_ID": 36110, "ELEMENT_SET_NO": 999, "REV_AT_EPOCH": 86060, "BSTAR": 0.00014264, "MEAN_MOTION_DOT": 9.73e-06, "MEAN_MOTION_DDOT": 0}, "tle": {"line1": "1 36110U 09069A   25336.67504324  .00000973  00000+0  14264-3 0  9993", "line2": "2 36110  98.0304 218.4677 0023838 315.2406  44.6880 14.77707249860605"}}, "geometry": {"type": "Point", "coordinates": [-116.81636605124987, -70.989463803247]}}, {"type": "Feature", "properties": {"norad_id": 36605, "name": "TANDEM-X", "group": "resource", "lat": -13.335472123633261, "lon": 160.94632450824977, "alt_km": 513.2506688099866, "timestamp": "2025-12-03T04:52:29.298156+00:00", "meta": {"OBJECT_NAME": "TANDEM-X", "OBJECT_ID": "2010-030A", "EPOCH": "2025-12-02T15:22:47.718912", "MEAN_MOTION": 15.19155178, "ECCENTRICITY": 0.00017925, "INCLINATION": 97.4443, "RA_OF_ASC_NODE": 342.1684, "ARG_OF_PERICENTER": 94.9925, "MEAN_ANOMALY": 265.1514, "EPHEMERIS_TYPE": 0, "CLASSIFICATION_TYPE": "U", "NORAD_CAT_ID": 36605, "ELEMENT_SET_NO": 999, "REV_AT_EPOCH": 85680, "BSTAR": 9.0053561e-05, "MEAN_MOTION_DOT": 1.825e-05, "MEAN_MOTION_DDOT": 0}, "tle": {"line1": "1 36605U 10030A   25336.64083008  .00001825  00000+0  90054-4 0  9999", "line2": "2 36605  97.4443 342.1684 0001792  94.9925 265.1514 15.19155178856802"}}, "geometry": {"type": "Point", "coordinates": [160.94632450824977, -13.335472123633261]}}, {"type": "Feature", "properties": {"norad_id": 36795, "name": "CARTOSAT-2B", "group": "resource", "lat": 0.5855014520963548, "lon": -153.3772215824123, "alt_km": 633.6516647972821, "timestamp": "2025-12-03T04:52:29.298166+00:00", "meta": {"OBJECT_NAME": "CARTOSAT-2B", "OBJECT_ID": "2010-035A", "EPOCH": "2025-12-02T21:34:19.139232", "MEAN_MOTION": 14.78763308, "ECCENTRICITY": 0.0012862, "INCLINATION": 97.7867, "RA_OF_ASC_NODE": 26.2482, "ARG_OF_PERICENTER": 106.4485, "MEAN_ANOMALY": 253.8141, "EPHEMERIS_TYPE": 0, "CLASSIFICATION_TYPE": "U", "NORAD_CAT_ID": 36795, "ELEMENT_SET_NO": 999, "REV_AT_EPOCH": 83084, "BSTAR": 0.00015199, "MEAN_MOTION_DOT": 1.068e-05, "MEAN_MOTION_DDOT": 0}, "tle": {"line1": "1 36795U 10035A   25336.89883263  .00001068  00000+0  15199-3 0  9997", "line2": "2 36795  97.7867  26.2482 0012862 106.4485 253.8141 14.78763308830841"}}, "geometry": {"type": "Point", "coordinates": [-153.3772215824123, 0.5855014520963548]}}, {"type": "Feature", "properties": {"norad_id": 36834, "name": "YAOGAN-10", "group": "resource", "lat": 59.027893604882514, "lon": -16.307576033905057, "alt_km": 608.3351829894473, "timestamp": "2025-12-03T04:52:29.298176+00:00", "meta": {"OBJECT_NAME": "YAOGAN-10", "OBJECT_ID": "2010-038A", "EPOCH": "2025-12-02T20:58:21.162720", "MEAN_MOTION": 14.845486, "ECCENTRICITY": 0.0001509, "INCLINATION": 97.9151, "RA_OF_ASC_NODE": 356.7685, "ARG_OF_PERICENTER": 84.8589, "MEAN_ANOMALY": 16.545, "EPHEMERIS_TYPE": 0, "CLASSIFICATION_TYPE": "U", "NORAD_CAT_ID": 36834, "ELEMENT_SET_NO": 999, "REV_AT_EPOCH": 82807, "BSTAR": 0.00017409, "MEAN_MOTION_DOT": 1.415e-05, "MEAN_MOTION_DDOT": 0}, "tle": {"line1": "1 36834U 10038A   25336.87385605  .00001415  00000+0  17409-3 0  9991", "line2": "2 36834  97.9151 356.7685 0001509  84.8589  16.5450 14.84548600828071"}}, "geometry": {"type": "Point", "coordinates": [-16.307576033905057, 59.027893604882514]}}]}